OBJECT_NAME,OBJECT_ID,EPOCH,MEAN_MOTION,ECCENTRICITY,INCLINATION,RA_OF_ASC_NODE,ARG_OF_PERICENTER,MEAN_ANOMALY,EPHEMERIS_TYPE,CLASSIFICATION_TYPE,NORAD_CAT_ID,ELEMENT_SET_NO,REV_AT_EPOCH,BSTAR,MEAN_MOTION_DOT,MEAN_MOTION_DDOT
ONEWEB-0399,2021-132L,2026-06-27T02:47:14.356896,13.11416063,.0001965,87.8887,19.0926,73.1134,287.0209,0,U,50479,999,21690,-.11934E-2,-.41E-5,0
ONEWEB-0400,2021-132M,2026-06-27T04:13:43.838112,13.18685256,.0002013,87.9179,333.4573,98.0186,262.1174,0,U,50480,999,22292,-.16335E-3,-.51E-6,0
ONEWEB-0401,2021-132N,2026-06-26T23:51:30.057696,13.18685516,.0001601,87.9179,333.4909,94.5940,265.5375,0,U,50481,999,22290,-.84876E-4,-.21E-6,0
ONEWEB-0402,2021-132P,2026-06-27T04:25:52.318848,13.18685903,.0001363,87.9176,333.4421,91.3334,268.7954,0,U,50482,999,22295,.91931E-4,.49E-6,0
ONEWEB-0403,2021-132Q,2026-06-27T03:13:01.709184,13.18685789,.0001933,87.9178,333.4763,90.8933,269.2420,0,U,50483,999,22290,-.62717E-4,-.12E-6,0
ONEWEB-0404,2021-132R,2026-06-27T02:20:23.058240,13.11417004,.0002073,87.8883,19.0941,81.2499,278.8864,0,U,50484,999,21699,.10115E-2,.371E-5,0
ONEWEB-0405,2021-132S,2026-06-26T23:53:52.400832,13.18681983,.0002224,87.9181,333.4883,103.4433,256.6947,0,U,50485,999,22328,-.77597E-2,-.3045E-4,0
ONEWEB-0406,2021-132T,2026-06-26T23:41:47.237856,13.18685418,.0002166,87.9175,333.5063,81.9253,278.2124,0,U,50486,999,22291,-.19414E-3,-.64E-6,0
ONEWEB-0407,2021-132U,2026-06-27T03:10:36.437952,13.18687436,.0001745,87.9178,333.4699,100.6861,259.4468,0,U,50487,999,22287,-.10091E-3,-.27E-6,0
ONEWEB-0409,2021-132V,2026-06-27T02:17:56.904864,13.11414767,.0002096,87.8888,19.0829,84.3169,275.8198,0,U,50488,999,21688,.11488E-2,.42E-5,0
ONEWEB-0412,2021-132W,2026-06-27T04:42:51.658272,13.18685978,.0001552,87.9174,333.4653,93.6161,266.5148,0,U,50489,999,22297,.22973E-3,.103E-5,0
ONEWEB-0413,2021-132X,2026-06-26T23:22:22.534752,13.18686974,.000155,87.9166,333.5076,98.3988,261.7320,0,U,50490,999,22288,-.60146E-4,-.11E-6,0
ONEWEB-0414,2021-132Y,2026-06-26T23:00:30.676032,13.18686029,.0001724,87.9177,333.4933,90.4178,269.7151,0,U,50491,999,22291,-.71326E-6,.13E-6,0
ONEWEB-0417,2021-132Z,2026-06-27T04:40:26.141664,13.18685634,.0002025,87.9169,333.4652,90.5482,269.5882,0,U,50492,999,22292,-.52521E-4,-.8E-7,0
ONEWEB-0418,2021-132AA,2026-06-27T03:05:31.845984,13.18685564,.0002064,87.9173,333.4788,89.4873,270.6496,0,U,50493,999,22297,-.14376E-3,-.44E-6,0
ONEWEB-0419,2021-132AB,2026-06-27T04:00:03.000096,13.18667292,.0002205,87.9173,333.4714,96.6685,354.1229,0,U,50494,999,524,-.35756E-1,-.14058E-3,0
ONEWEB-0420,2021-132AC,2026-06-26T23:02:55.552416,13.18688542,.0001819,87.9170,333.5138,101.7815,258.3521,0,U,50495,999,22286,-.92177E-3,-.35E-5,0
ONEWEB-0421,2021-132AD,2026-06-27T04:21:00.986688,13.18684571,.0001572,87.9171,333.4681,85.1935,274.9377,0,U,50496,999,22293,.13988E-3,.68E-6,0
ONEWEB-0424,2021-132AE,2026-06-27T03:25:10.277184,13.18685742,.000221,87.9177,333.4742,98.1326,262.0057,0,U,50497,999,22295,-.13713E-3,-.41E-6,0
ONEWEB-0426,2021-132AF,2026-06-27T04:14:56.052096,13.18684737,.0001911,87.9177,333.4583,73.9206,286.2136,0,U,50498,999,22290,.48772E-5,.15E-6,0
ONEWEB-0427,2021-132AG,2026-06-27T03:22:44.631840,13.18685867,.0001983,87.9178,333.4546,89.4812,270.6547,0,U,50499,999,22292,.72852E-5,.16E-6,0
ONEWEB-0429,2021-132AH,2026-06-27T03:03:18.623232,13.18686487,.0001763,87.9171,333.4809,97.9630,262.1702,0,U,50500,999,22289,-.24419E-4,.3E-7,0
ONEWEB-0430,2021-132AJ,2026-06-27T04:35:35.380608,13.18679996,.000185,87.9174,333.4667,102.5816,257.5523,0,U,50501,999,22294,.65759E-3,.272E-5,0
ONEWEB-0432,2021-132AK,2026-06-27T04:05:20.076864,13.17155283,.0002387,87.9176,333.4545,104.1136,256.0260,0,U,50502,999,22289,.62413E-4,.37E-6,0
ONEWEB-0440,2021-132AL,2026-06-26T23:36:55.694016,13.18685488,.00015,87.9179,333.5046,93.8955,266.2349,0,U,50503,999,22286,-.11482E-3,-.32E-6,0
ONEWEB-0450,2021-132AM,2026-06-27T03:05:56.641056,13.18685861,.00018,87.9166,333.4799,100.7861,259.3474,0,U,50504,999,22291,-.33155E-3,-.118E-5,0
ONEWEB-0410,2022-012A,2026-06-27T00:18:47.354976,13.17648802,.0002745,87.9144,3.9030,63.9619,296.1795,0,U,51622,999,21499,-.11409E-3,-.31E-6,0
ONEWEB-0411,2022-012B,2026-06-27T02:13:15.252096,13.10370863,.0001819,87.8835,34.2939,102.8795,257.2535,0,U,51623,999,21058,.19688E-3,.81E-6,0
ONEWEB-0415,2022-012C,2026-06-27T02:08:22.149600,13.10366303,.000201,87.8829,34.2933,92.2208,267.9149,0,U,51624,999,21058,.25187E-2,.892E-5,0
ONEWEB-0416,2022-012D,2026-06-27T02:25:28.756128,13.10368539,.0002291,87.8835,34.3088,89.8892,270.2497,0,U,51625,999,21062,.18948E-2,.674E-5,0
