ONEWEB-0399             
1 50479U 21132L   26178.11613839 -.00000410  00000+0 -11934-2 0  9996
2 50479  87.8887  19.0926 0001965  73.1134 287.0209 13.11416063216902
ONEWEB-0400             
1 50480U 21132M   26178.17620183 -.00000051  00000+0 -16335-3 0  9996
2 50480  87.9179 333.4573 0002013  98.0186 262.1174 13.18685256222921
ONEWEB-0401             
1 50481U 21132N   26177.99409789 -.00000021  00000+0 -84876-4 0  9996
2 50481  87.9179 333.4909 0001601  94.5940 265.5375 13.18685516222903
ONEWEB-0402             
1 50482U 21132P   26178.18463332  .00000049  00000+0  91931-4 0  9991
2 50482  87.9176 333.4421 0001363  91.3334 268.7954 13.18685903222950
ONEWEB-0403             
1 50483U 21132Q   26178.13404756 -.00000012  00000+0 -62717-4 0  9994
2 50483  87.9178 333.4763 0001933  90.8933 269.2420 13.18685789222905
ONEWEB-0404             
1 50484U 21132R   26178.09748910  .00000371  00000+0  10115-2 0  9992
2 50484  87.8883  19.0941 0002073  81.2499 278.8864 13.11417004216996
ONEWEB-0405             
1 50485U 21132S   26177.99574538 -.00003045  00000+0 -77597-2 0  9994
2 50485  87.9181 333.4883 0002224 103.4433 256.6947 13.18681983223282
ONEWEB-0406             
1 50486U 21132T   26177.98735229 -.00000064  00000+0 -19414-3 0  9993
2 50486  87.9175 333.5063 0002166  81.9253 278.2124 13.18685418222915
ONEWEB-0407             
1 50487U 21132U   26178.13236618 -.00000027  00000+0 -10091-3 0  9991
2 50487  87.9178 333.4699 0001745 100.6861 259.4468 13.18687436222878
ONEWEB-0409             
1 50488U 21132V   26178.09579751  .00000420  00000+0  11488-2 0  9990
2 50488  87.8888  19.0829 0002096  84.3169 275.8198 13.11414767216881
ONEWEB-0412             
1 50489U 21132W   26178.19643123  .00000103  00000+0  22973-3 0  9997
2 50489  87.9174 333.4653 0001552  93.6161 266.5148 13.18685978222970
ONEWEB-0413             
1 50490U 21132X   26177.97387193 -.00000011  00000+0 -60146-4 0  9991
2 50490  87.9166 333.5076 0001550  98.3988 261.7320 13.18686974222886
ONEWEB-0414             
1 50491U 21132Y   26177.95868838  .00000013  00000+0 -71326-6 0  9995
2 50491  87.9177 333.4933 0001724  90.4178 269.7151 13.18686029222912
ONEWEB-0417             
1 50492U 21132Z   26178.19474701 -.00000008  00000+0 -52521-4 0  9994
2 50492  87.9169 333.4652 0002025  90.5482 269.5882 13.18685634222927
ONEWEB-0418             
1 50493U 21132AA  26178.12884081 -.00000044  00000+0 -14376-3 0  9999
2 50493  87.9173 333.4788 0002064  89.4873 270.6496 13.18685564222978
ONEWEB-0419             
1 50494U 21132AB  26178.16670139 -.00014058  00000+0 -35756-1 0  9994
2 50494  87.9173 333.4714 0002205  96.6685 354.1229 13.18667292  5245
ONEWEB-0420             
1 50495U 21132AC  26177.96036519 -.00000350  00000+0 -92177-3 0  9992
2 50495  87.9170 333.5138 0001819 101.7815 258.3521 13.18688542222867
ONEWEB-0421             
1 50496U 21132AD  26178.18126142  .00000068  00000+0  13988-3 0  9997
2 50496  87.9171 333.4681 0001572  85.1935 274.9377 13.18684571222934
ONEWEB-0424             
1 50497U 21132AE  26178.14248006 -.00000041  00000+0 -13713-3 0  9997
2 50497  87.9177 333.4742 0002210  98.1326 262.0057 13.18685742222953
ONEWEB-0426             
1 50498U 21132AF  26178.17703764  .00000015  00000+0  48772-5 0  9992
2 50498  87.9177 333.4583 0001911  73.9206 286.2136 13.18684737222906
ONEWEB-0427             
1 50499U 21132AG  26178.14079435  .00000016  00000+0  72852-5 0  9998
2 50499  87.9178 333.4546 0001983  89.4812 270.6547 13.18685867222921
ONEWEB-0429             
1 50500U 21132AH  26178.12729888  .00000003  00000+0 -24419-4 0  9995
2 50500  87.9171 333.4809 0001763  97.9630 262.1702 13.18686487222891
ONEWEB-0430             
1 50501U 21132AJ  26178.19138172  .00000272  00000+0  65759-3 0  9991
2 50501  87.9174 333.4667 0001850 102.5816 257.5523 13.18679996222945
ONEWEB-0432             
1 50502U 21132AK  26178.17037126  .00000037  00000+0  62413-4 0  9991
2 50502  87.9176 333.4545 0002387 104.1136 256.0260 13.17155283222895
ONEWEB-0440             
1 50503U 21132AL  26177.98397794 -.00000032  00000+0 -11482-3 0  9996
2 50503  87.9179 333.5046 0001500  93.8955 266.2349 13.18685488222869
ONEWEB-0450             
1 50504U 21132AM  26178.12912779 -.00000118  00000+0 -33155-3 0  9996
2 50504  87.9166 333.4799 0001800 100.7861 259.3474 13.18685861222910
ONEWEB-0410             
1 51622U 22012A   26178.01304809 -.00000031  00000+0 -11409-3 0  9995
2 51622  87.9144   3.9030 0002745  63.9619 296.1795 13.17648802214992
ONEWEB-0411             
1 51623U 22012B   26178.09253764  .00000081  00000+0  19688-3 0  9997
2 51623  87.8835  34.2939 0001819 102.8795 257.2535 13.10370863210586
ONEWEB-0415             
1 51624U 22012C   26178.08914525  .00000892  00000+0  25187-2 0  9996
2 51624  87.8829  34.2933 0002010  92.2208 267.9149 13.10366303210582
ONEWEB-0416             
1 51625U 22012D   26178.10102727  .00000674  00000+0  18948-2 0  9998
2 51625  87.8835  34.3088 0002291  89.8892 270.2497 13.10368539210625
